{
    "links": {
        "self": "http://www.neowsapp.com/rest/v1/neo/3397570?api_key=iIulBulltgU6a56xZRHN4H3l9WmuAYTsLGpBGhQ2"
    },
    "id": "3397570",
    "neo_reference_id": "3397570",
    "name": "(2007 XQ3)",
    "designation": "2007 XQ3",
    "nasa_jpl_url": "http://ssd.jpl.nasa.gov/sbdb.cgi?sstr=3397570",
    "absolute_magnitude_h": 21.9,
    "estimated_diameter": {
        "kilometers": {
            "estimated_diameter_min": 0.1108038821,
            "estimated_diameter_max": 0.2477650126
        },
        "meters": {
            "estimated_diameter_min": 110.8038821264,
            "estimated_diameter_max": 247.7650126055
        },
        "miles": {
            "estimated_diameter_min": 0.068850319,
            "estimated_diameter_max": 0.1539539936
        },
        "feet": {
            "estimated_diameter_min": 363.5298086356,
            "estimated_diameter_max": 812.8773639568
        }
    },
    "is_potentially_hazardous_asteroid": false,
    "close_approach_data": [
        {
            "close_approach_date": "1994-01-18",
            "close_approach_date_full": "1994-Jan-18 19:54",
            "epoch_date_close_approach": 758922840000,
            "relative_velocity": {
                "kilometers_per_second": "3.8358116241",
                "kilometers_per_hour": "13808.9218467375",
                "miles_per_hour": "8580.3270219353"
            },
            "miss_distance": {
                "astronomical": "0.2054938117",
                "lunar": "79.9370927513",
                "kilometers": "30741436.528501079",
                "miles": "19101842.8945857302"
            },
            "orbiting_body": "Earth"
        },
        {
            "close_approach_date": "2008-01-21",
            "close_approach_date_full": "2008-Jan-21 20:01",
            "epoch_date_close_approach": 1200945660000,
            "relative_velocity": {
                "kilometers_per_second": "4.6052705026",
                "kilometers_per_hour": "16578.9738092687",
                "miles_per_hour": "10301.5295872092"
            },
            "miss_distance": {
                "astronomical": "0.1972294992",
                "lunar": "76.7222751888",
                "kilometers": "29505112.981486704",
                "miles": "18333627.0651123552"
            },
            "orbiting_body": "Earth"
        },
        {
            "close_approach_date": "2013-05-28",
            "close_approach_date_full": "2013-May-28 17:07",
            "epoch_date_close_approach": 1369760820000,
            "relative_velocity": {
                "kilometers_per_second": "13.0858644266",
                "kilometers_per_hour": "47109.1119358766",
                "miles_per_hour": "29271.770135934"
            },
            "miss_distance": {
                "astronomical": "0.078337263",
                "lunar": "30.473195307",
                "kilometers": "11719087.68642981",
                "miles": "7281903.421998978"
            },
            "orbiting_body": "Mars"
        },
        {
            "close_approach_date": "2022-01-23",
            "close_approach_date_full": "2022-Jan-23 00:13",
            "epoch_date_close_approach": 1642896780000,
            "relative_velocity": {
                "kilometers_per_second": "6.0255351173",
                "kilometers_per_hour": "21691.9264224273",
                "miles_per_hour": "13478.5195039799"
            },
            "miss_distance": {
                "astronomical": "0.2602261638",
                "lunar": "101.2279777182",
                "kilometers": "38929279.822751106",
                "miles": "24189532.7983170228"
            },
            "orbiting_body": "Earth"
        }
    ],
    "orbital_data": {
        "orbit_id": "14",
        "orbit_determination_date": "2017-04-06 09:04:59",
        "first_observation_date": "2007-12-04",
        "last_observation_date": "2008-01-19",
        "data_arc_in_days": 46,
        "observations_used": 28,
        "orbit_uncertainty": "6",
        "minimum_orbit_intersection": ".18753",
        "jupiter_tisserand_invariant": "3.733",
        "epoch_osculation": "2459000.5",
        "eccentricity": ".4224819332922517",
        "semi_major_axis": "1.985352128642811",
        "inclination": "6.592718192024492",
        "ascending_node_longitude": "253.8517987160479",
        "orbital_period": "1021.773760438509",
        "perihelion_distance": "1.146576723067909",
        "perihelion_argument": "233.6983806516222",
        "aphelion_distance": "2.824127534217713",
        "perihelion_time": "2458575.771168760262",
        "mean_anomaly": "149.6440652191788",
        "mean_motion": ".3523284839938549",
        "equinox": "J2000",
        "orbit_class": {
            "orbit_class_type": "AMO",
            "orbit_class_description": "Near-Earth asteroid orbits similar to that of 1221 Amor",
            "orbit_class_range": "1.017 AU < q (perihelion) < 1.3 AU"
        }
    },
    "is_sentry_object": false
}